[{"OBJECT_NAME":"OBJECT C","OBJECT_ID":"2024-092C","EPOCH":"2026-03-09T23:10:26.961312","MEAN_MOTION":15.27308901,"ECCENTRICITY":0.00097974,"INCLINATION":97.6475,"RA_OF_ASC_NODE":197.1606,"ARG_OF_PERICENTER":169.1353,"MEAN_ANOMALY":191.0098,"EPHEMERIS_TYPE":0,"CLASSIFICATION_TYPE":"U","NORAD_CAT_ID":59775,"ELEMENT_SET_NO":999,"REV_AT_EPOCH":10042,"BSTAR":0.00057925748,"MEAN_MOTION_DOT":0.00015454,"MEAN_MOTION_DDOT":0},{"OBJECT_NAME":"STARLINK-32799","OBJECT_ID":"2025-019U","EPOCH":"2026-03-09T10:23:40.764480","MEAN_MOTION":15.27563236,"ECCENTRICITY":9.76e-5,"INCLINATION":42.9994,"RA_OF_ASC_NODE":90.2596,"ARG_OF_PERICENTER":259.5578,"MEAN_ANOMALY":100.5163,"EPHEMERIS_TYPE":0,"CLASSIFICATION_TYPE":"U","NORAD_CAT_ID":62847,"ELEMENT_SET_NO":999,"REV_AT_EPOCH":6221,"BSTAR":0.00079186769,"MEAN_MOTION_DOT":0.00021581,"MEAN_MOTION_DDOT":0}]
